start=new Date('2022-07-04T00:00:00.000Z').valueOf();
sats=[{"CENTER_NAME":"EARTH","NORAD_CAT_ID":"47392","MEAN_MOTION_DOT":"0.00000483","INCLINATION":"53.0553","APOAPSIS":"548.080","MEAN_MOTION":"15.06412979","EPOCH":"2022-07-03T17:45:56.955456","MEAN_ELEMENT_THEORY":"SGP4","SEMIMAJOR_AXIS":"6925.309","ARG_OF_PERICENTER":"80.3485","COUNTRY_CODE":"US","MEAN_ANOMALY":"279.7652","TLE_LINE1":"1 47392U 21005AV  22184.74024254  .00000483  00000-0  51284-4 0  9997","GP_ID":"207355942","FILE":"3507292","REF_FRAME":"TEME","CLASSIFICATION_TYPE":"U","OBJECT_NAME":"STARLINK-2113","OBJECT_ID":"2021-005AV","EPHEMERIS_TYPE":"0","BSTAR":"0.00005128400000","ECCENTRICITY":"0.00013080","RA_OF_ASC_NODE":"309.3408","TLE_LINE2":"2 47392  53.0553 309.3408 0001308  80.3485 279.7652 15.06412979 80746","REV_AT_EPOCH":"8074","ELEMENT_SET_NO":"999","TIME_SYSTEM":"UTC","DECAY_DATE":null,"RCS_SIZE":"LARGE","PERIOD":"95.591","MEAN_MOTION_DDOT":"0.0000000000000","SITE":"AFETR","OBJECT_TYPE":"PAYLOAD","PERIAPSIS":"546.268","LAUNCH_DATE":"2021-01-20"},{"TLE_LINE1":"1 47393U 21005AW  22184.56751104 -.00000727  00000-0 -29924-4 0  9998","GP_ID":"207328468","MEAN_ANOMALY":"300.3277","ARG_OF_PERICENTER":"59.7853","COUNTRY_CODE":"US","MEAN_ELEMENT_THEORY":"SGP4","SEMIMAJOR_AXIS":"6925.329","MEAN_MOTION":"15.06406250","EPOCH":"2022-07-03T13:37:12.953856","INCLINATION":"53.0550","APOAPSIS":"548.177","MEAN_MOTION_DOT":"-0.00000727","NORAD_CAT_ID":"47393","CENTER_NAME":"EARTH","LAUNCH_DATE":"2021-01-20","PERIAPSIS":"546.212","SITE":"AFETR","OBJECT_TYPE":"PAYLOAD","DECAY_DATE":null,"RCS_SIZE":"LARGE","PERIOD":"95.592","MEAN_MOTION_DDOT":"0.0000000000000","TIME_SYSTEM":"UTC","TLE_LINE2":"2 47393  53.0550 285.4523 0001419  59.7853 300.3277 15.06406250 81063","ELEMENT_SET_NO":"999","REV_AT_EPOCH":"8106","RA_OF_ASC_NODE":"285.4523","ECCENTRICITY":"0.00014190","BSTAR":"-0.00002992400000","OBJECT_NAME":"STARLINK-2114","OBJECT_ID":"2021-005AW","EPHEMERIS_TYPE":"0","CLASSIFICATION_TYPE":"U","REF_FRAME":"TEME","FILE":"3507188"},{"ARG_OF_PERICENTER":"56.4642","COUNTRY_CODE":"US","MEAN_ANOMALY":"303.6525","GP_ID":"207356429","TLE_LINE1":"1 47394U 21005AX  22184.63198521  .00000251  00000-0  35776-4 0  9997","NORAD_CAT_ID":"47394","CENTER_NAME":"EARTH","MEAN_MOTION_DOT":"0.00000251","MEAN_MOTION":"15.06409250","EPOCH":"2022-07-03T15:10:03.522144","INCLINATION":"53.0576","APOAPSIS":"548.477","MEAN_ELEMENT_THEORY":"SGP4","SEMIMAJOR_AXIS":"6925.320","DECAY_DATE":null,"RCS_SIZE":"LARGE","PERIOD":"95.592","MEAN_MOTION_DDOT":"0.0000000000000","SITE":"AFETR","OBJECT_TYPE":"PAYLOAD","PERIAPSIS":"545.894","LAUNCH_DATE":"2021-01-20","REF_FRAME":"TEME","FILE":"3507292","OBJECT_NAME":"STARLINK-2115","OBJECT_ID":"2021-005AX","EPHEMERIS_TYPE":"0","CLASSIFICATION_TYPE":"U","RA_OF_ASC_NODE":"304.9760","TLE_LINE2":"2 47394  53.0576 304.9760 0001865  56.4642 303.6525 15.06409250 80803","ELEMENT_SET_NO":"999","REV_AT_EPOCH":"8080","BSTAR":"0.00003577600000","ECCENTRICITY":"0.00018650","TIME_SYSTEM":"UTC"},{"CENTER_NAME":"EARTH","NORAD_CAT_ID":"47395","MEAN_MOTION_DOT":"0.00001176","APOAPSIS":"548.364","INCLINATION":"53.0559","EPOCH":"2022-07-03T18:50:58.120224","MEAN_MOTION":"15.06406973","SEMIMAJOR_AXIS":"6925.327","MEAN_ELEMENT_THEORY":"SGP4","COUNTRY_CODE":"US","ARG_OF_PERICENTER":"58.1368","MEAN_ANOMALY":"301.9785","TLE_LINE1":"1 47395U 21005AY  22184.78539491  .00001176  00000-0  97795-4 0  9995","GP_ID":"207355193","FILE":"3507292","REF_FRAME":"TEME","CLASSIFICATION_TYPE":"U","OBJECT_NAME":"STARLINK-2117","OBJECT_ID":"2021-005AY","EPHEMERIS_TYPE":"0","ECCENTRICITY":"0.00016920","BSTAR":"0.00009779500000","REV_AT_EPOCH":"8089","TLE_LINE2":"2 47395  53.0559 299.1360 0001692  58.1368 301.9785 15.06406973 80895","RA_OF_ASC_NODE":"299.1360","ELEMENT_SET_NO":"999","TIME_SYSTEM":"UTC","PERIOD":"95.592","RCS_SIZE":"LARGE","MEAN_MOTION_DDOT":"0.0000000000000","DECAY_DATE":null,"OBJECT_TYPE":"PAYLOAD","SITE":"AFETR","PERIAPSIS":"546.020","LAUNCH_DATE":"2021-01-20"},{"COUNTRY_CODE":"US","ARG_OF_PERICENTER":"88.6716","MEAN_ANOMALY":"271.4404","GP_ID":"207355443","TLE_LINE1":"1 47396U 21005AZ  22184.62967043  .00001911  00000-0  14717-3 0  9996","CENTER_NAME":"EARTH","NORAD_CAT_ID":"47396","MEAN_MOTION_DOT":"0.00001911","APOAPSIS":"548.016","INCLINATION":"53.0558","EPOCH":"2022-07-03T15:06:43.525152","MEAN_MOTION":"15.06396493","SEMIMAJOR_AXIS":"6925.359","MEAN_ELEMENT_THEORY":"SGP4","RCS_SIZE":"LARGE","PERIOD":"95.592","MEAN_MOTION_DDOT":"0.0000000000000","DECAY_DATE":null,"OBJECT_TYPE":"PAYLOAD","SITE":"AFETR","PERIAPSIS":"546.433","LAUNCH_DATE":"2021-01-20","FILE":"3507292","REF_FRAME":"TEME","CLASSIFICATION_TYPE":"U","OBJECT_NAME":"STARLINK-2118","OBJECT_ID":"2021-005AZ","EPHEMERIS_TYPE":"0","BSTAR":"0.00014717000000","ECCENTRICITY":"0.00011430","REV_AT_EPOCH":"8073","TLE_LINE2":"2 47396  53.0558 309.8310 0001143  88.6716 271.4404 15.06396493 80732","RA_OF_ASC_NODE":"309.8310","ELEMENT_SET_NO":"999","TIME_SYSTEM":"UTC"},{"RCS_SIZE":"LARGE","MEAN_MOTION_DDOT":"0.0000000000000","PERIOD":"95.592","DECAY_DATE":null,"OBJECT_TYPE":"PAYLOAD","SITE":"AFETR","PERIAPSIS":"546.190","LAUNCH_DATE":"2021-01-20","FILE":"3507292","REF_FRAME":"TEME","CLASSIFICATION_TYPE":"U","OBJECT_ID":"2021-005BA","OBJECT_NAME":"STARLINK-2119","EPHEMERIS_TYPE":"0","ECCENTRICITY":"0.00014590","BSTAR":"0.00007405200000","TLE_LINE2":"2 47397  53.0554 338.9394 0001459  70.1137 290.0009 15.06404390 80348","ELEMENT_SET_NO":"999","RA_OF_ASC_NODE":"338.9394","REV_AT_EPOCH":"8034","TIME_SYSTEM":"UTC","COUNTRY_CODE":"US","ARG_OF_PERICENTER":"70.1137","MEAN_ANOMALY":"290.0009","GP_ID":"207356192","TLE_LINE1":"1 47397U 21005BA  22184.82594518  .00000822  00000-0  74052-4 0  9991","CENTER_NAME":"EARTH","NORAD_CAT_ID":"47397","MEAN_MOTION_DOT":"0.00000822","APOAPSIS":"548.211","INCLINATION":"53.0554","EPOCH":"2022-07-03T19:49:21.663552","MEAN_MOTION":"15.06404390","SEMIMAJOR_AXIS":"6925.335","MEAN_ELEMENT_THEORY":"SGP4"},{"MEAN_ELEMENT_THEORY":"SGP4","SEMIMAJOR_AXIS":"6925.347","INCLINATION":"53.0561","APOAPSIS":"548.314","MEAN_MOTION":"15.06400357","EPOCH":"2022-07-03T20:46:25.414752","MEAN_MOTION_DOT":"0.00001251","CENTER_NAME":"EARTH","NORAD_CAT_ID":"47398","GP_ID":"207356929","TLE_LINE1":"1 47398U 21005BB  22184.86557193  .00001251  00000-0  10286-3 0  9999","MEAN_ANOMALY":"292.6671","ARG_OF_PERICENTER":"67.4486","COUNTRY_CODE":"US","TIME_SYSTEM":"UTC","ECCENTRICITY":"0.00015900","BSTAR":"0.00010286000000","TLE_LINE2":"2 47398  53.0561 308.7795 0001590  67.4486 292.6671 15.06400357 80767","ELEMENT_SET_NO":"999","RA_OF_ASC_NODE":"308.7795","REV_AT_EPOCH":"8076","CLASSIFICATION_TYPE":"U","OBJECT_ID":"2021-005BB","EPHEMERIS_TYPE":"0","OBJECT_NAME":"STARLINK-2120","FILE":"3507292","REF_FRAME":"TEME","LAUNCH_DATE":"2021-01-20","PERIAPSIS":"546.111","SITE":"AFETR","OBJECT_TYPE":"PAYLOAD","DECAY_DATE":null,"RCS_SIZE":"LARGE","PERIOD":"95.592","MEAN_MOTION_DDOT":"0.0000000000000"},{"PERIAPSIS":"546.022","LAUNCH_DATE":"2021-01-20","DECAY_DATE":null,"PERIOD":"95.591","RCS_SIZE":"LARGE","MEAN_MOTION_DDOT":"0.0000000000000","SITE":"AFETR","OBJECT_TYPE":"PAYLOAD","RA_OF_ASC_NODE":"320.0430","TLE_LINE2":"2 47399  53.0545 320.0430 0001610  67.3935 292.7224 15.06424927 80588","REV_AT_EPOCH":"8058","ELEMENT_SET_NO":"999","BSTAR":"0.00050430000000","ECCENTRICITY":"0.00016100","TIME_SYSTEM":"UTC","REF_FRAME":"TEME","FILE":"3507292","OBJECT_ID":"2021-005BC","OBJECT_NAME":"STARLINK-2121","EPHEMERIS_TYPE":"0","CLASSIFICATION_TYPE":"U","TLE_LINE1":"1 47399U 21005BC  22184.63614406  .00007243  00000-0  50430-3 0  9998","GP_ID":"207355693","ARG_OF_PERICENTER":"67.3935","COUNTRY_CODE":"US","MEAN_ANOMALY":"292.7224","MEAN_MOTION":"15.06424927","EPOCH":"2022-07-03T15:16:02.846784","INCLINATION":"53.0545","APOAPSIS":"548.252","MEAN_ELEMENT_THEORY":"SGP4","SEMIMAJOR_AXIS":"6925.272","NORAD_CAT_ID":"47399","CENTER_NAME":"EARTH","MEAN_MOTION_DOT":"0.00007243"},{"BSTAR":"0.00005606700000","ECCENTRICITY":"0.00013720","TLE_LINE2":"2 47400  53.0571 299.3828 0001372  65.8796 294.2336 15.06412243 80884","REV_AT_EPOCH":"8088","RA_OF_ASC_NODE":"299.3828","ELEMENT_SET_NO":"999","TIME_SYSTEM":"UTC","FILE":"3507292","REF_FRAME":"TEME","CLASSIFICATION_TYPE":"U","OBJECT_NAME":"STARLINK-2122","EPHEMERIS_TYPE":"0","OBJECT_ID":"2021-005BD","PERIAPSIS":"546.226","LAUNCH_DATE":"2021-01-20","RCS_SIZE":"LARGE","MEAN_MOTION_DDOT":"0.0000000000000","PERIOD":"95.591","DECAY_DATE":null,"OBJECT_TYPE":"PAYLOAD","SITE":"AFETR","APOAPSIS":"548.126","INCLINATION":"53.0571","EPOCH":"2022-07-03T17:31:21.327744","MEAN_MOTION":"15.06412243","SEMIMAJOR_AXIS":"6925.311","MEAN_ELEMENT_THEORY":"SGP4","CENTER_NAME":"EARTH","NORAD_CAT_ID":"47400","MEAN_MOTION_DOT":"0.00000554","GP_ID":"207355943","TLE_LINE1":"1 47400U 21005BD  22184.73010796  .00000554  00000-0  56067-4 0  9995","COUNTRY_CODE":"US","ARG_OF_PERICENTER":"65.8796","MEAN_ANOMALY":"294.2336"},{"ECCENTRICITY":"0.00015930","BSTAR":"0.00008628900000","TLE_LINE2":"2 47401  53.0560 309.3114 0001593  60.5511 299.5637 15.06402230 80758","REV_AT_EPOCH":"8075","RA_OF_ASC_NODE":"309.3114","ELEMENT_SET_NO":"999","TIME_SYSTEM":"UTC","FILE":"3507292","REF_FRAME":"TEME","CLASSIFICATION_TYPE":"U","OBJECT_NAME":"STARLINK-2123","EPHEMERIS_TYPE":"0","OBJECT_ID":"2021-005BE","PERIAPSIS":"546.104","LAUNCH_DATE":"2021-01-20","PERIOD":"95.592","RCS_SIZE":"LARGE","MEAN_MOTION_DDOT":"0.0000000000000","DECAY_DATE":null,"OBJECT_TYPE":"PAYLOAD","SITE":"AFETR","APOAPSIS":"548.310","INCLINATION":"53.0560","EPOCH":"2022-07-03T17:56:34.083744","MEAN_MOTION":"15.06402230","SEMIMAJOR_AXIS":"6925.342","MEAN_ELEMENT_THEORY":"SGP4","CENTER_NAME":"EARTH","NORAD_CAT_ID":"47401","MEAN_MOTION_DOT":"0.00001004","TLE_LINE1":"1 47401U 21005BE  22184.74761671  .00001004  00000-0  86289-4 0  9992","GP_ID":"207356692","COUNTRY_CODE":"US","ARG_OF_PERICENTER":"60.5511","MEAN_ANOMALY":"299.5637"}];
